{"fetched_at":"2026-03-29T16:36:15Z","count":15609,"tles":[{"name":"STARLINK-4711","line1":"1 53701U 22107B   26087.92563579 -.00000404  00000+0 -72776-5 0  9990","line2":"2 53701  53.2157 157.3563 0001289  89.7271 270.3868 15.08838101197764","category":"Starlink"}]}